{
  "type": "FeatureCollection",
  "features": [
    {
      "type": "Feature",
      "properties": {
        "norad_id": 42988,
        "name": "SKYSAT-C10",
        "group": "resource",
        "lat": 27.467345481418633,
        "lon": 107.34582250336787,
        "alt_km": 469.4807203497312,
        "timestamp": "2025-12-06T09:34:16.575483+00:00",
        "meta_object_name": "SKYSAT-C10",
        "meta_object_id": "2017-068B",
        "meta_epoch": "2025-12-05T22:28:34.957344",
        "meta_mean_motion": 15.31841022,
        "meta_eccentricity": 0.000521,
        "meta_inclination": 97.4257,
        "meta_ra_of_asc_node": 110.7702,
        "meta_arg_of_pericenter": 123.2309,
        "meta_mean_anomaly": 236.9433,
        "meta_ephemeris_type": 0,
        "meta_classification_type": "U",
        "meta_norad_cat_id": 42988,
        "meta_element_set_no": 999,
        "meta_rev_at_epoch": 45275,
        "meta_bstar": 0.00053284059,
        "meta_mean_motion_dot": 0.00016326,
        "meta_mean_motion_ddot": 0,
        "tle_line1": "1 42988U 17068B   25339.93651571  .00016326  00000+0  53284-3 0  9994",
        "tle_line2": "2 42988  97.4257 110.7702 0005210 123.2309 236.9433 15.31841022452753"
      },
      "geometry": {
        "type": "Point",
        "coordinates": [
          107.34582250336787,
          27.467345481418633
        ]
      }
    },
    {
      "type": "Feature",
      "properties": {
        "norad_id": 42989,
        "name": "SKYSAT-C9",
        "group": "resource",
        "lat": 34.504494841926885,
        "lon": -64.2567120160467,
        "alt_km": 450.5327103672462,
        "timestamp": "2025-12-06T09:34:16.575493+00:00",
        "meta_object_name": "SKYSAT-C9",
        "meta_object_id": "2017-068C",
        "meta_epoch": "2025-12-05T21:59:47.184576",
        "meta_mean_motion": 15.3578286,
        "meta_eccentricity": 0.0010678,
        "meta_inclination": 97.4191,
        "meta_ra_of_asc_node": 110.1184,
        "meta_arg_of_pericenter": 109.997,
        "meta_mean_anomaly": 250.2424,
        "meta_ephemeris_type": 0,
        "meta_classification_type": "U",
        "meta_norad_cat_id": 42989,
        "meta_element_set_no": 999,
        "meta_rev_at_epoch": 45303,
        "meta_bstar": 0.00055177338,
        "meta_mean_motion_dot": 0.00019186,
        "meta_mean_motion_ddot": 0,
        "tle_line1": "1 42989U 17068C   25339.91651834  .00019186  00000+0  55177-3 0  9995",
        "tle_line2": "2 42989  97.4191 110.1184 0010678 109.9970 250.2424 15.35782860453037"
      },
      "geometry": {
        "type": "Point",
        "coordinates": [
          -64.2567120160467,
          34.504494841926885
        ]
      }
    },
    {
      "type": "Feature",
      "properties": {
        "norad_id": 42990,
        "name": "SKYSAT-C8",
        "group": "resource",
        "lat": -6.847986203306268,
        "lon": -70.52484732989157,
        "alt_km": 473.0614300280049,
        "timestamp": "2025-12-06T09:34:16.575504+00:00",
        "meta_object_name": "SKYSAT-C8",
        "meta_object_id": "2017-068D",
        "meta_epoch": "2025-12-05T21:47:26.707200",
        "meta_mean_motion": 15.32691073,
        "meta_eccentricity": 0.00020047,
        "meta_inclination": 97.4283,
        "meta_ra_of_asc_node": 109.8802,
        "meta_arg_of_pericenter": 13.2304,
        "meta_mean_anomaly": 346.899,
        "meta_ephemeris_type": 0,
        "meta_classification_type": "U",
        "meta_norad_cat_id": 42990,
        "meta_element_set_no": 999,
        "meta_rev_at_epoch": 45266,
        "meta_bstar": 0.00053098083,
        "meta_mean_motion_dot": 0.00016703,
        "meta_mean_motion_ddot": 0,
        "tle_line1": "1 42990U 17068D   25339.90794800  .00016703  00000+0  53098-3 0  9999",
        "tle_line2": "2 42990  97.4283 109.8802 0002004  13.2304 346.8990 15.32691073452665"
      },
      "geometry": {
        "type": "Point",
        "coordinates": [
          -70.52484732989157,
          -6.847986203306268
        ]
      }
    },
    {
      "type": "Feature",
      "properties": {
        "norad_id": 42991,
        "name": "SKYSAT-C7",
        "group": "resource",
        "lat": 54.92820147491967,
        "lon": 100.70841116037177,
        "alt_km": 459.3037238178049,
        "timestamp": "2025-12-06T09:34:16.575514+00:00",
        "meta_object_name": "SKYSAT-C7",
        "meta_object_id": "2017-068E",
        "meta_epoch": "2025-12-05T20:47:22.958016",
        "meta_mean_motion": 15.32096932,
        "meta_eccentricity": 0.00078691,
        "meta_inclination": 97.4288,
        "meta_ra_of_asc_node": 110.8849,
        "meta_arg_of_pericenter": 78.5608,
        "meta_mean_anomaly": 281.6517,
        "meta_ephemeris_type": 0,
        "meta_classification_type": "U",
        "meta_norad_cat_id": 42991,
        "meta_element_set_no": 999,
        "meta_rev_at_epoch": 45272,
        "meta_bstar": 0.00053450721,
        "meta_mean_motion_dot": 0.00016518,
        "meta_mean_motion_ddot": 0,
        "tle_line1": "1 42991U 17068E   25339.86623794  .00016518  00000+0  53451-3 0  9995",
        "tle_line2": "2 42991  97.4288 110.8849 0007869  78.5608 281.6517 15.32096932452720"
      },
      "geometry": {
        "type": "Point",
        "coordinates": [
          100.70841116037177,
          54.92820147491967
        ]
      }
    },
    {
      "type": "Feature",
      "properties": {
        "norad_id": 42992,
        "name": "SKYSAT-C6",
        "group": "resource",
        "lat": -11.698094682820619,
        "lon": -69.6859185767079,
        "alt_km": 476.5409792448263,
        "timestamp": "2025-12-06T09:34:16.575524+00:00",
        "meta_object_name": "SKYSAT-C6",
        "meta_object_id": "2017-068F",
        "meta_epoch": "2025-12-05T21:45:32.443200",
        "meta_mean_motion": 15.31272862,
        "meta_eccentricity": 0.00051873,
        "meta_inclination": 97.4324,
        "meta_ra_of_asc_node": 111.3697,
        "meta_arg_of_pericenter": 102.0368,
        "meta_mean_anomaly": 258.1454,
        "meta_ephemeris_type": 0,
        "meta_classification_type": "U",
        "meta_norad_cat_id": 42992,
        "meta_element_set_no": 999,
        "meta_rev_at_epoch": 45271,
        "meta_bstar": 0.00052280879,
        "meta_mean_motion_dot": 0.00015735,
        "meta_mean_motion_ddot": 0,
        "tle_line1": "1 42992U 17068F   25339.90662550  .00015735  00000+0  52281-3 0  9994",
        "tle_line2": "2 42992  97.4324 111.3697 0005187 102.0368 258.1454 15.31272862452711"
      },
      "geometry": {
        "type": "Point",
        "coordinates": [
          -69.6859185767079,
          -11.698094682820619
        ]
      }
    },
    {
      "type": "Feature",
      "properties": {
        "norad_id": 43111,
        "name": "CARTOSAT-2F",
        "group": "resource",
        "lat": -35.00083504001045,
        "lon": -147.10580150006757,
        "alt_km": 514.5983756803707,
        "timestamp": "2025-12-06T09:34:16.575533+00:00",
        "meta_object_name": "CARTOSAT-2F",
        "meta_object_id": "2018-004A",
        "meta_epoch": "2025-12-05T23:08:30.666912",
        "meta_mean_motion": 15.191713,
        "meta_eccentricity": 5.644e-05,
        "meta_inclination": 97.4327,
        "meta_ra_of_asc_node": 37.7116,
        "meta_arg_of_pericenter": 134.7286,
        "meta_mean_anomaly": 225.3995,
        "meta_ephemeris_type": 0,
        "meta_classification_type": "U",
        "meta_norad_cat_id": 43111,
        "meta_element_set_no": 999,
        "meta_rev_at_epoch": 43799,
        "meta_bstar": 0.00040456035,
        "meta_mean_motion_dot": 8.443e-05,
        "meta_mean_motion_ddot": 0,
        "tle_line1": "1 43111U 18004A   25339.96424383  .00008443  00000+0  40456-3 0  9994",
        "tle_line2": "2 43111  97.4327  37.7116 0000564 134.7286 225.3995 15.19171300437990"
      },
      "geometry": {
        "type": "Point",
        "coordinates": [
          -147.10580150006757,
          -35.00083504001045
        ]
      }
    },
    {
      "type": "Feature",
      "properties": {
        "norad_id": 43259,
        "name": "GAOFEN-1 02",
        "group": "resource",
        "lat": -55.29324395316685,
        "lon": -153.65240861738292,
        "alt_km": 646.6185593619784,
        "timestamp": "2025-12-06T09:34:16.575543+00:00",
        "meta_object_name": "GAOFEN-1 02",
        "meta_object_id": "2018-031A",
        "meta_epoch": "2025-12-05T22:44:46.557312",
        "meta_mean_motion": 14.76458354,
        "meta_eccentricity": 0.00013548,
        "meta_inclination": 98.0815,
        "meta_ra_of_asc_node": 37.7345,
        "meta_arg_of_pericenter": 241.3805,
        "meta_mean_anomaly": 118.7268,
        "meta_ephemeris_type": 0,
        "meta_classification_type": "U",
        "meta_norad_cat_id": 43259,
        "meta_element_set_no": 999,
        "meta_rev_at_epoch": 41418,
        "meta_bstar": 0.00028345588,
        "meta_mean_motion_dot": 1.921e-05,
        "meta_mean_motion_ddot": 0,
        "tle_line1": "1 43259U 18031A   25339.94776108  .00001921  00000+0  28346-3 0  9998",
        "tle_line2": "2 43259  98.0815  37.7345 0001354 241.3805 118.7268 14.76458354414189"
      },
      "geometry": {
        "type": "Point",
        "coordinates": [
          -153.65240861738292,
          -55.29324395316685
        ]
      }
    }
  ]
}